ATLAS 2 CENTAUR R/B(2)  
1 23648U 95038C   26064.48796436  .00000084  00000+0  00000+0 0  9993
2 23648  13.7760 346.0785 0023558 301.8012  57.9740  1.01263266 25039
COSMOS 2319             
1 23653U 95045A   26064.70391926 -.00000373  00000+0  00000+0 0  9999
2 23653  14.3692 353.4969 0006831 268.5545 280.7974  1.00206862111755
SL-12 R/B(2)            
1 23656U 95045D   26065.41170270  .00000076  00000+0  00000+0 0  9997
2 23656  14.4264 353.8087 0018242  50.8681 129.9658  1.00140290111633
TELSTAR 4 (TELSTAR 402R)
1 23670U 95049A   26065.34072409 -.00000177  00000+0  00000+0 0  9997
2 23670  13.5049  13.4422 0004926 321.6444 216.4169  1.00296074111475
LUCH-1                  
1 23680U 95054A   26064.85580649 -.00000121  00000+0  00000+0 0  9998
2 23680  15.0204   0.0649 0004455 150.0876  37.4335  1.00267031111319
SL-12 R/B(2)            
1 23683U 95054D   26065.52054586 -.00000375  00000+0  00000+0 0  9993
2 23683  14.9842 359.8776 0017889  97.6049   9.7925  1.00201122111346
ARIANE 42L+3 R/B        
1 23687U 95055B   26065.06938738 -.00000067  00000+0  63006-3 0  9994
2 23687   5.2513 297.3223 7228115 266.2464  16.0926  2.22313983245770
USA 115 (MILSTAR-1 2)   
1 23712U 95060A   26065.46017095 -.00000022  00000+0  00000+0 0  9999
2 23712  14.0358   4.5090 0004007 338.6020 226.7528  1.00270699 31852
TITAN 401 CENTAUR R/B   
1 23713U 95060B   26065.28782259 -.00000316  00000+0  00000+0 0  9997
2 23713  14.3797 359.6461 0035654 224.3457 135.3677  1.00603222 24399
ISO                     
1 23715U 95062A   26065.06632607 -.00000230  00000+0 -13800-2 0  9999
2 23715   2.5555 325.4157 8364700 323.8411   2.3468  1.02201598112644
ARIANE 44P+3 R/B        
1 23716U 95062B   26064.56354524 -.00000315  00000+0  00000+0 0  9991
2 23716   4.4149  22.9724 8347316  16.3292 358.5943  0.95004267105224
GALS 2                  
1 23717U 95063A   26065.72544876 -.00000298  00000+0  00000+0 0  9993
2 23717  14.4518   3.3691 0009357 329.3664 240.7947  0.99895146110606
SL-12 R/B(2)            
1 23720U 95063D   26065.02128000  .00000030  00000+0  00000+0 0  9990
2 23720  14.1951 348.9497 0035171 188.9444   2.1108  1.00286165110953
INSAT-2C                
1 23731U 95067B   26065.49942764  .00000084  00000+0  00000+0 0  9997
2 23731  14.2463   9.0362 0003899   6.5507 177.7770  0.99783644110389
GALAXY 3R (G-3R)        
1 23741U 95069A   26065.49350311  .00000020  00000+0  00000+0 0  9991
2 23741  13.1915  16.9927 0001833 346.3273 210.9263  1.00309729110787
ABS-1A                  
1 23768U 96003A   26065.73100362 -.00000250  00000+0  00000+0 0  9991
2 23768  12.4677  26.3145 0001167 296.3028 261.0130  0.99803678110152
DELTA 2 R/B(2)          
1 23770U 96003C   26062.17962698  .00000045  00000+0  00000+0 0  9998
2 23770  20.4345 156.5076 6924903 296.0706   8.0531  2.19761519242019
