[{"OBJECT_NAME":"ATLAS 2 CENTAUR R/B(2)","OBJECT_ID":"1995-038C","EPOCH":"2026-03-05T11:42:40.120704","MEAN_MOTION":1.01263266,"ECCENTRICITY":0.0023558,"INCLINATION":13.776,"RA_OF_ASC_NODE":346.0785,"ARG_OF_PERICENTER":301.8012,"MEAN_ANOMALY":57.974,"EPHEMERIS_TYPE":0,"CLASSIFICATION_TYPE":"U","NORAD_CAT_ID":23648,"ELEMENT_SET_NO":999,"REV_AT_EPOCH":2503,"BSTAR":0,"MEAN_MOTION_DOT":8.4e-7,"MEAN_MOTION_DDOT":0},{"OBJECT_NAME":"COSMOS 2319","OBJECT_ID":"1995-045A","EPOCH":"2026-03-05T16:53:38.624064","MEAN_MOTION":1.00206862,"ECCENTRICITY":0.00068315,"INCLINATION":14.3692,"RA_OF_ASC_NODE":353.4969,"ARG_OF_PERICENTER":268.5545,"MEAN_ANOMALY":280.7974,"EPHEMERIS_TYPE":0,"CLASSIFICATION_TYPE":"U","NORAD_CAT_ID":23653,"ELEMENT_SET_NO":999,"REV_AT_EPOCH":11175,"BSTAR":0,"MEAN_MOTION_DOT":-3.73e-6,"MEAN_MOTION_DDOT":0},{"OBJECT_NAME":"SL-12 R/B(2)","OBJECT_ID":"1995-045D","EPOCH":"2026-03-06T09:52:51.113280","MEAN_MOTION":1.0014029,"ECCENTRICITY":0.00182423,"INCLINATION":14.4264,"RA_OF_ASC_NODE":353.8087,"ARG_OF_PERICENTER":50.8681,"MEAN_ANOMALY":129.9658,"EPHEMERIS_TYPE":0,"CLASSIFICATION_TYPE":"U","NORAD_CAT_ID":23656,"ELEMENT_SET_NO":999,"REV_AT_EPOCH":11163,"BSTAR":0,"MEAN_MOTION_DOT":7.6e-7,"MEAN_MOTION_DDOT":0},{"OBJECT_NAME":"TELSTAR 4 (TELSTAR 402R)","OBJECT_ID":"1995-049A","EPOCH":"2026-03-06T08:10:38.561376","MEAN_MOTION":1.00296074,"ECCENTRICITY":0.00049261,"INCLINATION":13.5049,"RA_OF_ASC_NODE":13.4422,"ARG_OF_PERICENTER":321.6444,"MEAN_ANOMALY":216.4169,"EPHEMERIS_TYPE":0,"CLASSIFICATION_TYPE":"U","NORAD_CAT_ID":23670,"ELEMENT_SET_NO":999,"REV_AT_EPOCH":11147,"BSTAR":0,"MEAN_MOTION_DOT":-1.77e-6,"MEAN_MOTION_DDOT":0},{"OBJECT_NAME":"LUCH-1","OBJECT_ID":"1995-054A","EPOCH":"2026-03-05T20:32:21.680736","MEAN_MOTION":1.00267031,"ECCENTRICITY":0.00044559,"INCLINATION":15.0204,"RA_OF_ASC_NODE":0.0649,"ARG_OF_PERICENTER":150.0876,"MEAN_ANOMALY":37.4335,"EPHEMERIS_TYPE":0,"CLASSIFICATION_TYPE":"U","NORAD_CAT_ID":23680,"ELEMENT_SET_NO":999,"REV_AT_EPOCH":11131,"BSTAR":0,"MEAN_MOTION_DOT":-1.21e-6,"MEAN_MOTION_DDOT":0},{"OBJECT_NAME":"SL-12 R/B(2)","OBJECT_ID":"1995-054D","EPOCH":"2026-03-06T12:29:35.162304","MEAN_MOTION":1.00201122,"ECCENTRICITY":0.00178899,"INCLINATION":14.9842,"RA_OF_ASC_NODE":359.8776,"ARG_OF_PERICENTER":97.6049,"MEAN_ANOMALY":9.7925,"EPHEMERIS_TYPE":0,"CLASSIFICATION_TYPE":"U","NORAD_CAT_ID":23683,"ELEMENT_SET_NO":999,"REV_AT_EPOCH":11134,"BSTAR":0,"MEAN_MOTION_DOT":-3.75e-6,"MEAN_MOTION_DDOT":0},{"OBJECT_NAME":"ARIANE 42L+3 R/B","OBJECT_ID":"1995-055B","EPOCH":"2026-03-06T01:39:55.069632","MEAN_MOTION":2.22313983,"ECCENTRICITY":0.72281154,"INCLINATION":5.2513,"RA_OF_ASC_NODE":297.3223,"ARG_OF_PERICENTER":266.2464,"MEAN_ANOMALY":16.0926,"EPHEMERIS_TYPE":0,"CLASSIFICATION_TYPE":"U","NORAD_CAT_ID":23687,"ELEMENT_SET_NO":999,"REV_AT_EPOCH":24577,"BSTAR":0.00063005634,"MEAN_MOTION_DOT":-6.7e-7,"MEAN_MOTION_DDOT":0},{"OBJECT_NAME":"USA 115 (MILSTAR-1 2)","OBJECT_ID":"1995-060A","EPOCH":"2026-03-06T11:02:38.770080","MEAN_MOTION":1.00270699,"ECCENTRICITY":0.00040073,"INCLINATION":14.0358,"RA_OF_ASC_NODE":4.509,"ARG_OF_PERICENTER":338.602,"MEAN_ANOMALY":226.7528,"EPHEMERIS_TYPE":0,"CLASSIFICATION_TYPE":"U","NORAD_CAT_ID":23712,"ELEMENT_SET_NO":999,"REV_AT_EPOCH":3185,"BSTAR":0,"MEAN_MOTION_DOT":-2.2e-7,"MEAN_MOTION_DDOT":0},{"OBJECT_NAME":"TITAN 401 CENTAUR R/B","OBJECT_ID":"1995-060B","EPOCH":"2026-03-06T06:54:27.871776","MEAN_MOTION":1.00603222,"ECCENTRICITY":0.0035654,"INCLINATION":14.3797,"RA_OF_ASC_NODE":359.6461,"ARG_OF_PERICENTER":224.3457,"MEAN_ANOMALY":135.3677,"EPHEMERIS_TYPE":0,"CLASSIFICATION_TYPE":"U","NORAD_CAT_ID":23713,"ELEMENT_SET_NO":999,"REV_AT_EPOCH":2439,"BSTAR":0,"MEAN_MOTION_DOT":-3.16e-6,"MEAN_MOTION_DDOT":0},{"OBJECT_NAME":"ISO","OBJECT_ID":"1995-062A","EPOCH":"2026-03-06T01:35:30.572448","MEAN_MOTION":1.02201598,"ECCENTRICITY":0.83647,"INCLINATION":2.5555,"RA_OF_ASC_NODE":325.4157,"ARG_OF_PERICENTER":323.8411,"MEAN_ANOMALY":2.3468,"EPHEMERIS_TYPE":0,"CLASSIFICATION_TYPE":"U","NORAD_CAT_ID":23715,"ELEMENT_SET_NO":999,"REV_AT_EPOCH":11264,"BSTAR":-0.00138,"MEAN_MOTION_DOT":-2.3e-6,"MEAN_MOTION_DDOT":0},{"OBJECT_NAME":"ARIANE 44P+3 R/B","OBJECT_ID":"1995-062B","EPOCH":"2026-03-05T13:31:30.308736","MEAN_MOTION":0.95004267,"ECCENTRICITY":0.83473169,"INCLINATION":4.4149,"RA_OF_ASC_NODE":22.9724,"ARG_OF_PERICENTER":16.3292,"MEAN_ANOMALY":358.5943,"EPHEMERIS_TYPE":0,"CLASSIFICATION_TYPE":"U","NORAD_CAT_ID":23716,"ELEMENT_SET_NO":999,"REV_AT_EPOCH":10522,"BSTAR":0,"MEAN_MOTION_DOT":-3.15e-6,"MEAN_MOTION_DDOT":0},{"OBJECT_NAME":"GALS 2","OBJECT_ID":"1995-063A","EPOCH":"2026-03-06T17:24:38.772864","MEAN_MOTION":0.99895146,"ECCENTRICITY":0.0009357,"INCLINATION":14.4518,"RA_OF_ASC_NODE":3.3691,"ARG_OF_PERICENTER":329.3664,"MEAN_ANOMALY":240.7947,"EPHEMERIS_TYPE":0,"CLASSIFICATION_TYPE":"U","NORAD_CAT_ID":23717,"ELEMENT_SET_NO":999,"REV_AT_EPOCH":11060,"BSTAR":0,"MEAN_MOTION_DOT":-2.98e-6,"MEAN_MOTION_DDOT":0},{"OBJECT_NAME":"SL-12 R/B(2)","OBJECT_ID":"1995-063D","EPOCH":"2026-03-06T00:30:38.592000","MEAN_MOTION":1.00286165,"ECCENTRICITY":0.00351715,"INCLINATION":14.1951,"RA_OF_ASC_NODE":348.9497,"ARG_OF_PERICENTER":188.9444,"MEAN_ANOMALY":2.1108,"EPHEMERIS_TYPE":0,"CLASSIFICATION_TYPE":"U","NORAD_CAT_ID":23720,"ELEMENT_SET_NO":999,"REV_AT_EPOCH":11095,"BSTAR":0,"MEAN_MOTION_DOT":3.0e-7,"MEAN_MOTION_DDOT":0},{"OBJECT_NAME":"INSAT-2C","OBJECT_ID":"1995-067B","EPOCH":"2026-03-06T11:59:10.548096","MEAN_MOTION":0.99783644,"ECCENTRICITY":0.00038996,"INCLINATION":14.2463,"RA_OF_ASC_NODE":9.0362,"ARG_OF_PERICENTER":6.5507,"MEAN_ANOMALY":177.777,"EPHEMERIS_TYPE":0,"CLASSIFICATION_TYPE":"U","NORAD_CAT_ID":23731,"ELEMENT_SET_NO":999,"REV_AT_EPOCH":11038,"BSTAR":0,"MEAN_MOTION_DOT":8.4e-7,"MEAN_MOTION_DDOT":0},{"OBJECT_NAME":"GALAXY 3R (G-3R)","OBJECT_ID":"1995-069A","EPOCH":"2026-03-06T11:50:38.668704","MEAN_MOTION":1.00309729,"ECCENTRICITY":0.00018337,"INCLINATION":13.1915,"RA_OF_ASC_NODE":16.9927,"ARG_OF_PERICENTER":346.3273,"MEAN_ANOMALY":210.9263,"EPHEMERIS_TYPE":0,"CLASSIFICATION_TYPE":"U","NORAD_CAT_ID":23741,"ELEMENT_SET_NO":999,"REV_AT_EPOCH":11078,"BSTAR":0,"MEAN_MOTION_DOT":2.0e-7,"MEAN_MOTION_DDOT":0},{"OBJECT_NAME":"ABS-1A","OBJECT_ID":"1996-003A","EPOCH":"2026-03-06T17:32:38.712768","MEAN_MOTION":0.99803678,"ECCENTRICITY":0.0001167,"INCLINATION":12.4677,"RA_OF_ASC_NODE":26.3145,"ARG_OF_PERICENTER":296.3028,"MEAN_ANOMALY":261.013,"EPHEMERIS_TYPE":0,"CLASSIFICATION_TYPE":"U","NORAD_CAT_ID":23768,"ELEMENT_SET_NO":999,"REV_AT_EPOCH":11015,"BSTAR":0,"MEAN_MOTION_DOT":-2.5e-6,"MEAN_MOTION_DDOT":0},{"OBJECT_NAME":"DELTA 2 R/B(2)","OBJECT_ID":"1996-003C","EPOCH":"2026-03-03T04:18:39.771072","MEAN_MOTION":2.19761519,"ECCENTRICITY":0.69249031,"INCLINATION":20.4345,"RA_OF_ASC_NODE":156.5076,"ARG_OF_PERICENTER":296.0706,"MEAN_ANOMALY":8.0531,"EPHEMERIS_TYPE":0,"CLASSIFICATION_TYPE":"U","NORAD_CAT_ID":23770,"ELEMENT_SET_NO":999,"REV_AT_EPOCH":24201,"BSTAR":0,"MEAN_MOTION_DOT":4.5e-7,"MEAN_MOTION_DDOT":0}]
